{
  "type": "FeatureCollection",
  "features": [
    { "type": "Feature", "properties": { "id": 1, "name": "United States", "total_medals": 126 }, "geometry": { "type": "Point", "coordinates": [-95.712891, 37.09024] } },
    { "type": "Feature", "properties": { "id": 2, "name": "China", "total_medals": 91 }, "geometry": { "type": "Point", "coordinates": [104.195397, 35.86166] } },
    { "type": "Feature", "properties": { "id": 3, "name": "United Kingdom", "total_medals": 65 }, "geometry": { "type": "Point", "coordinates": [-3.435973, 55.378051] } },
    { "type": "Feature", "properties": { "id": 4, "name": "France", "total_medals": 64 }, "geometry": { "type": "Point", "coordinates": [2.213749, 46.227638] } },
    { "type": "Feature", "properties": { "id": 5, "name": "Australia", "total_medals": 53 }, "geometry": { "type": "Point", "coordinates": [133.775136, -25.274398] } },
    { "type": "Feature", "properties": { "id": 6, "name": "Japan", "total_medals": 52 }, "geometry": { "type": "Point", "coordinates": [138.252924, 36.204824] } },
    { "type": "Feature", "properties": { "id": 7, "name": "Italy", "total_medals": 45 }, "geometry": { "type": "Point", "coordinates": [12.56738, 41.87194] } },
    { "type": "Feature", "properties": { "id": 8, "name": "Germany", "total_medals": 40 }, "geometry": { "type": "Point", "coordinates": [10.451526, 51.165691] } },
    { "type": "Feature", "properties": { "id": 9, "name": "Netherlands", "total_medals": 37 }, "geometry": { "type": "Point", "coordinates": [5.291266, 52.132633] } },
    { "type": "Feature", "properties": { "id": 10, "name": "South Korea", "total_medals": 31 }, "geometry": { "type": "Point", "coordinates": [127.766922, 35.907757] } },
    { "type": "Feature", "properties": { "id": 11, "name": "Canada", "total_medals": 29 }, "geometry": { "type": "Point", "coordinates": [-106.346771, 56.130366] } },
    { "type": "Feature", "properties": { "id": 12, "name": "Brazil", "total_medals": 28 }, "geometry": { "type": "Point", "coordinates": [-51.92528, -14.235004] } },
    { "type": "Feature", "properties": { "id": 13, "name": "Spain", "total_medals": 27 }, "geometry": { "type": "Point", "coordinates": [-3.74922, 40.463667] } },
    { "type": "Feature", "properties": { "id": 14, "name": "Hungary", "total_medals": 25 }, "geometry": { "type": "Point", "coordinates": [19.503304, 47.162494] } },
    { "type": "Feature", "properties": { "id": 15, "name": "Sweden", "total_medals": 23 }, "geometry": { "type": "Point", "coordinates": [18.643501, 60.128161] } },
    { "type": "Feature", "properties": { "id": 16, "name": "New Zealand", "total_medals": 21 }, "geometry": { "type": "Point", "coordinates": [174.885971, -40.900557] } },
    { "type": "Feature", "properties": { "id": 17, "name": "Norway", "total_medals": 20 }, "geometry": { "type": "Point", "coordinates": [8.468946, 60.472024] } },
    { "type": "Feature", "properties": { "id": 18, "name": "Switzerland", "total_medals": 20 }, "geometry": { "type": "Point", "coordinates": [8.227512, 46.818188] } },
    { "type": "Feature", "properties": { "id": 19, "name": "Denmark", "total_medals": 17 }, "geometry": { "type": "Point", "coordinates": [9.501785, 56.26392] } },
    { "type": "Feature", "properties": { "id": 20, "name": "Kenya", "total_medals": 15 }, "geometry": { "type": "Point", "coordinates": [37.906193, -0.023559] } },
    { "type": "Feature", "properties": { "id": 21, "name": "Cuba", "total_medals": 15 }, "geometry": { "type": "Point", "coordinates": [-77.781167, 21.521757] } },
    { "type": "Feature", "properties": { "id": 22, "name": "Poland", "total_medals": 14 }, "geometry": { "type": "Point", "coordinates": [19.145136, 51.919438] } },
    { "type": "Feature", "properties": { "id": 23, "name": "Czech Republic", "total_medals": 12 }, "geometry": { "type": "Point", "coordinates": [15.472962, 49.817492] } },
    { "type": "Feature", "properties": { "id": 24, "name": "South Africa", "total_medals": 12 }, "geometry": { "type": "Point", "coordinates": [22.937506, -30.559482] } },
    { "type": "Feature", "properties": { "id": 25, "name": "Ethiopia", "total_medals": 12 }, "geometry": { "type": "Point", "coordinates": [40.489673, 9.145] } },
    { "type": "Feature", "properties": { "id": 26, "name": "Belgium", "total_medals": 11 }, "geometry": { "type": "Point", "coordinates": [4.469936, 50.503887] } },
    { "type": "Feature", "properties": { "id": 27, "name": "Ireland", "total_medals": 10 }, "geometry": { "type": "Point", "coordinates": [-8.24389, 53.41291] } },
    { "type": "Feature", "properties": { "id": 28, "name": "Mexico", "total_medals": 9 }, "geometry": { "type": "Point", "coordinates": [-102.552784, 23.634501] } },
    { "type": "Feature", "properties": { "id": 29, "name": "Greece", "total_medals": 9 }, "geometry": { "type": "Point", "coordinates": [21.824312, 39.074208] } },
    { "type": "Feature", "properties": { "id": 30, "name": "Uzbekistan", "total_medals": 9 }, "geometry": { "type": "Point", "coordinates": [64.585262, 41.377491] } },
    { "type": "Feature", "properties": { "id": 31, "name": "Turkey", "total_medals": 8 }, "geometry": { "type": "Point", "coordinates": [35.243322, 38.963745] } },
    { "type": "Feature", "properties": { "id": 32, "name": "Ukraine", "total_medals": 8 }, "geometry": { "type": "Point", "coordinates": [31.16558, 48.379433] } },
    { "type": "Feature", "properties": { "id": 33, "name": "Serbia", "total_medals": 8 }, "geometry": { "type": "Point", "coordinates": [21.005859, 44.016521] } },
    { "type": "Feature", "properties": { "id": 34, "name": "Georgia", "total_medals": 7 }, "geometry": { "type": "Point", "coordinates": [43.356892, 42.315407] } },
    { "type": "Feature", "properties": { "id": 35, "name": "Iran", "total_medals": 6 }, "geometry": { "type": "Point", "coordinates": [53.688046, 32.427908] } },
    { "type": "Feature", "properties": { "id": 36, "name": "Croatia", "total_medals": 6 }, "geometry": { "type": "Point", "coordinates": [15.2, 45.1] } },
    { "type": "Feature", "properties": { "id": 37, "name": "Romania", "total_medals": 5 }, "geometry": { "type": "Point", "coordinates": [24.96676, 45.943161] } },
    { "type": "Feature", "properties": { "id": 38, "name": "Azerbaijan", "total_medals": 5 }, "geometry": { "type": "Point", "coordinates": [47.576927, 40.143105] } },
    { "type": "Feature", "properties": { "id": 39, "name": "Israel", "total_medals": 5 }, "geometry": { "type": "Point", "coordinates": [34.851612, 31.046051] } },
    { "type": "Feature", "properties": { "id": 40, "name": "Slovenia", "total_medals": 5 }, "geometry": { "type": "Point", "coordinates": [14.995463, 46.151241] } },
    { "type": "Feature", "properties": { "id": 41, "name": "Portugal", "total_medals": 4 }, "geometry": { "type": "Point", "coordinates": [-8.224454, 39.399872] } },
    { "type": "Feature", "properties": { "id": 42, "name": "Jamaica", "total_medals": 4 }, "geometry": { "type": "Point", "coordinates": [-77.297508, 18.109581] } },
    { "type": "Feature", "properties": { "id": 43, "name": "Chinese Taipei", "total_medals": 3 }, "geometry": { "type": "Point", "coordinates": [120.960515, 23.69781] } },
    { "type": "Feature", "properties": { "id": 44, "name": "India", "total_medals": 3 }, "geometry": { "type": "Point", "coordinates": [78.96288, 20.593684] } },
    { "type": "Feature", "properties": { "id": 45, "name": "Armenia", "total_medals": 2 }, "geometry": { "type": "Point", "coordinates": [45.038189, 40.069099] } },
    { "type": "Feature", "properties": { "id": 46, "name": "Mongolia", "total_medals": 2 }, "geometry": { "type": "Point", "coordinates": [103.846656, 46.862496] } },
    { "type": "Feature", "properties": { "id": 47, "name": "Thailand", "total_medals": 2 }, "geometry": { "type": "Point", "coordinates": [100.992541, 15.870032] } },
    { "type": "Feature", "properties": { "id": 48, "name": "Slovakia", "total_medals": 2 }, "geometry": { "type": "Point", "coordinates": [19.699024, 48.669026] } },
    { "type": "Feature", "properties": { "id": 49, "name": "Indonesia", "total_medals": 2 }, "geometry": { "type": "Point", "coordinates": [113.921327, -0.789275] } },
    { "type": "Feature", "properties": { "id": 50, "name": "Ecuador", "total_medals": 2 }, "geometry": { "type": "Point", "coordinates": [-78.183406, -1.831239] } },
    { "type": "Feature", "properties": { "id": 51, "name": "Finland", "total_medals": 2 }, "geometry": { "type": "Point", "coordinates": [25.748151, 61.92411] } },
    { "type": "Feature", "properties": { "id": 52, "name": "Lithuania", "total_medals": 2 }, "geometry": { "type": "Point", "coordinates": [23.881275, 55.169438] } },
    { "type": "Feature", "properties": { "id": 53, "name": "Dominican Republic", "total_medals": 2 }, "geometry": { "type": "Point", "coordinates": [-70.162651, 18.735693] } },
    { "type": "Feature", "properties": { "id": 54, "name": "Morocco", "total_medals": 2 }, "geometry": { "type": "Point", "coordinates": [-7.09262, 31.791702] } },
    { "type": "Feature", "properties": { "id": 55, "name": "Botswana", "total_medals": 1 }, "geometry": { "type": "Point", "coordinates": [24.684866, -22.328474] } },
    { "type": "Feature", "properties": { "id": 56, "name": "Chile", "total_medals": 1 }, "geometry": { "type": "Point", "coordinates": [-71.542969, -35.675147] } },
    { "type": "Feature", "properties": { "id": 57, "name": "Colombia", "total_medals": 1 }, "geometry": { "type": "Point", "coordinates": [-74.297333, 4.570868] } },
    { "type": "Feature", "properties": { "id": 58, "name": "Costa Rica", "total_medals": 1 }, "geometry": { "type": "Point", "coordinates": [-83.753428, 9.748917] } },
    { "type": "Feature", "properties": { "id": 59, "name": "Cyprus", "total_medals": 1 }, "geometry": { "type": "Point", "coordinates": [33.429859, 35.126413] } },
    { "type": "Feature", "properties": { "id": 60, "name": "Egypt", "total_medals": 1 }, "geometry": { "type": "Point", "coordinates": [30.802498, 26.820553] } },
    { "type": "Feature", "properties": { "id": 61, "name": "Estonia", "total_medals": 1 }, "geometry": { "type": "Point", "coordinates": [25.013607, 58.595272] } },
    { "type": "Feature", "properties": { "id": 62, "name": "Fiji", "total_medals": 1 }, "geometry": { "type": "Point", "coordinates": [179.414413, -16.578193] } },
    { "type": "Feature", "properties": { "id": 63, "name": "Grenada", "total_medals": 1 }, "geometry": { "type": "Point", "coordinates": [-61.679, 12.1165] } },
    { "type": "Feature", "properties": { "id": 64, "name": "Kuwait", "total_medals": 1 }, "geometry": { "type": "Point", "coordinates": [47.481766, 29.31166] } },
    { "type": "Feature", "properties": { "id": 65, "name": "Latvia", "total_medals": 1 }, "geometry": { "type": "Point", "coordinates": [24.603189, 56.879635] } },
    { "type": "Feature", "properties": { "id": 66, "name": "Luxembourg", "total_medals": 1 }, "geometry": { "type": "Point", "coordinates": [6.129583, 49.815273]}}]}
    
    
